{
  "norad_id": 40889,
  "name": "GSAT0205 (GALILEO 9)",
  "history": [
    {
      "epoch": "2026-03-27T08:44:09.530016",
      "apogee_km": 23594.610473570632,
      "perigee_km": 23569.731433845875,
      "latitude_deg": 26.493550927397067,
      "longitude_deg": 7.843922239961103,
      "semi_major_axis_km": 29960.307953708252,
      "eccentricity": 0.0004152,
      "inclination_deg": 54.9729,
      "raan_deg": 223.9518,
      "arg_perigee_deg": 269.7313,
      "mean_anomaly_deg": 90.1696,
      "mean_motion_rev_day": 1.67410754
    }
  ]
}